[{"OBJECT_NAME":"STARLINK-4005","OBJECT_ID":"2022-053AG","EPOCH":"2026-03-09T10:27:10.364832","MEAN_MOTION":15.08834601,"ECCENTRICITY":0.00014565,"INCLINATION":53.2178,"RA_OF_ASC_NODE":145.5399,"ARG_OF_PERICENTER":100.1869,"MEAN_ANOMALY":259.9287,"EPHEMERIS_TYPE":0,"CLASSIFICATION_TYPE":"U","NORAD_CAT_ID":52686,"ELEMENT_SET_NO":999,"REV_AT_EPOCH":21108,"BSTAR":2.3463516e-5,"MEAN_MOTION_DOT":8.5e-7,"MEAN_MOTION_DDOT":0},{"OBJECT_NAME":"STARLINK-6085","OBJECT_ID":"2023-090Q","EPOCH":"2026-03-09T12:53:56.600160","MEAN_MOTION":15.13089153,"ECCENTRICITY":0.00193829,"INCLINATION":42.9983,"RA_OF_ASC_NODE":264.1938,"ARG_OF_PERICENTER":205.4773,"MEAN_ANOMALY":154.5119,"EPHEMERIS_TYPE":0,"CLASSIFICATION_TYPE":"U","NORAD_CAT_ID":57115,"ELEMENT_SET_NO":999,"REV_AT_EPOCH":15052,"BSTAR":0.0015301514,"MEAN_MOTION_DOT":0.00027564,"MEAN_MOTION_DDOT":0}]
